#dP2023 11  1  0  0  0.00000000     289 d+D   IGS20 FIT AIUB
## 2286 259200.00000000   300.00000000 60249 0.0000000000000
+  116   G01G02G03G04G05G06G07G08G09G10G11G12G13G14G15G16G17
+        G18G19G20G21G22G23G24G25G26G27G28G29G30G31G32R01R02
+        R03R04R05R07R08R09R11R12R13R14R15R16R17R18R19R20R21
+        R22R24R25R26E02E03E04E05E07E08E09E10E11E12E13E15E19
+        E21E24E25E26E27E30E31E33E34E36C06C07C08C09C10C11C12
+        C13C14C16C19C20C21C22C23C24C25C26C27C28C29C30C32C33
+        C34C36C37C38C39C40C41C42C43C44C45C46J03J04  0  0  0
++         5  5  5  5  5  5  5  5  5  5  5  5  5  5  5  5  5
++         5  5  5  5  5  5  5  5  5  5  5  5  5  5  5  5  5
++         5  5  5  5  5  5  5  5  5  6  6  5  5  5  5  5  5
++         5  5  5  6  5  5  5  5  5  5  5  5  5  5  5  5  5
++         5  5  5  5  5  5  5  5  5  5  5  5  5  5  5  5  5
++         5  5  5  5  5  5  5  5  5  5  5  5  5  5  5  5  5
++         5  5  5  5  5  5  5  5  5  5  5  5  5  5  0  0  0
%c M  cc GPS ccc cccc cccc cccc cccc ccccc ccccc ccccc ccccc
%c cc cc ccc ccc cccc cccc cccc cccc ccccc ccccc ccccc ccccc
%f  1.2500000  1.025000000  0.00000000000  0.000000000000000
%f  0.0000000  0.000000000  0.00000000000  0.000000000000000
%i    0    0    0    0      0      0      0      0         0
%i    0    0    0    0      0      0      0      0         0
/* Center for Orbit Determination in Europe (CODE)                              
/* MGEX orbits and clocks for year-day 2023-3050                                
/* Middle day of a 3-day long-arc multi-GNSS solution                           
/* Systems considered: GPS/GLONASS/Galileo/BeiDou/QZSS                          
/* Product reference - DOI 10.7892/boris.75882.3                                
/* PCV:IGS20      OL/AL:FES2014b NONE     YN ORB:CoN CLK:CoN                    
*  2023 11  1  0 35  0.00000000
PG01  11778.434411 -20284.784860 -12461.095659    163.283727
PG02  15683.349977 -20622.845802  -4858.049151   -534.870684
PG03   3171.989770 -14570.735678 -22129.212443    -43.801938
PG04   1687.479429 -25243.399944  -7858.868311    200.332955
PG05 -17471.509559   7867.596617  18253.524020   -148.657159
PG06 -19534.925399    994.329927 -17945.691924    517.423555
PG07  -5192.810461 -15563.973106  21281.762443     25.379827
PG08   7173.049325 -19759.057322  15909.029192   -149.933443
PG09  -6783.571516 -25572.884899   1888.589456    -16.226119
PG10  23980.765173  11210.896250   3962.512991    -59.590249
PG11 -22897.702726  10587.300339  -8202.062209   -440.393039
PG12  -6411.794443  13859.431468 -22008.310027   -442.077550
PG13 -13189.207801  11055.394788  19968.092898    590.322342
PG14 -21892.219595 -13612.883660   6783.490275    230.323709
PG15  -4069.570908  21378.980212  14584.534303     92.660733
PG16  21936.105697  -1427.510352  14910.645007   -429.839591
PG17 -12562.847677 -17420.121744 -15105.129967    723.571043
PG18   6109.117953  14046.162699  21688.646361   -465.871074
PG19 -14743.066646  -9076.864614 -20431.196637    392.699080
PG20 -24922.540723   2119.550695   8696.832088    403.938734
PG21  17369.053602 -19311.539972  -1535.481597    145.424075
PG22 -23943.711473 -11127.809238    244.229991     92.315217
PG23  15752.747193  15549.855124  14824.985789     91.514108
PG24 -13514.919845  21564.793619  -7178.353357   -360.307064
PG25   8094.468608  17054.426651 -19109.983519    475.358375
PG26  25982.811762   2713.007243   5632.154366    219.674597
PG27  13722.060139  -6943.960079  21351.835121    -63.498297
PG28  18695.587413    713.692126 -18878.295539    -36.498445
PG29   4181.360720  26098.162960   1922.694716   -610.223969
PG30 -14507.625457  -7938.016176  20946.161012   -472.960427
PG31  22593.798679  -6813.577947 -12788.018706   -225.275457
PG32  15014.185637  13238.405218 -17376.797132   -580.147534
PR01   6054.813097 -10165.299019 -22604.515100     68.802773
PR02  -6593.127015 -21103.766934 -12618.753837    -22.395616
PR03 -15528.431197 -19684.244791   4546.898583     88.117905
PR04 -15407.947535  -7731.970852  18814.168490    209.147888
PR05  -7182.520402   8530.880737  22947.782297    121.480956
PR07  15719.661846  19417.887982  -5263.176563     68.078468
PR08  15497.964187   7486.544409 -18791.018366    -73.181162
PR09  -1339.179526  11428.307226 -22751.522122    150.697421
PR11  25191.369647     38.891022  -3945.843807   -210.057933
PR12  19212.923318  -8278.944103  14629.899979     32.913776
PR13   3873.169110 -11172.528411  22587.834557    -40.835632
PR14 -16677.728133  -7464.093594  17819.004449     25.457425
PR15 -25378.917799    389.412078   2576.912202     84.951104
PR16 -19418.924197   8188.382699 -14385.969552     20.165453
PR17  -5038.496054 -12095.974772 -21880.492010     30.771877
PR18 -13133.537759   4264.761434 -21436.011854    109.647340
PR19 -15308.681101  16925.831776 -11376.213044   -253.025881
PR20  -7800.164389  22396.566019   9449.985667   -102.782349
PR21   5403.413822  11356.463553  22191.778161    -49.933513
PR22  13908.341238  -4596.146495  20911.406168     91.320783
PR24   6428.855417 -22636.591702  -9851.996765    -30.435676
PR25   4824.447605  12376.442464  21780.373088     -6.534327
PR26  15678.268717   7836.214948 -18510.197546    -18.595954
PE02  27869.711608   9999.863335   -302.066488     74.655358
PE03  17355.124804  11175.569339 -21222.746058    -69.949237
PE04 -14458.083815  11170.503066  23287.459310   -247.145052
PE05  10175.163544  26938.320156  -6862.053520     32.967676
PE07   3314.398919 -26863.751942 -11990.410296    -85.377285
PE08  14528.242923 -10581.294360 -23527.905774   -170.052991
PE09  -3311.602784  26778.998332  12151.446116   -211.531952
PE10 -20835.132973  20796.543618   3022.171415   -575.431838
PE11 -13573.838654  22886.844241  12964.705260   3159.223980
PE12 -24293.094531  15700.254486  -6304.195289   -758.845108
PE13  14164.352546 -22862.445930 -12359.878919    -19.615218
PE15  24341.145546 -15417.704472   6799.322741    -65.793392
PE19 -16795.114132 -13869.862465  20039.388088  -1308.351930
PE21 -16382.078788 -17976.996085  16869.667508   -561.762533
PE24  -5828.690760  15793.181574 -24358.651198   -406.722610
PE25  16048.899614  18042.246131 -17118.529931     -3.775633
PE26  -4893.576763 -16517.941354 -24063.334326    267.727151
PE27   5210.148039 -15950.442820  24388.871707   -188.613595
PE30  23737.224126  -4240.917231  17171.695957   -625.446750
PE31 -23466.771039   4550.897781 -17444.920131     -9.119220
PE33 -19759.955586  -1495.058868 -21976.218397      1.417778
PE34  20136.694582    889.506729  21682.765411    -75.472706
PE36   4149.640317  16822.627820  24004.908785   -137.753229
PC06 -16088.651074  37865.523928  -9829.168252     79.163868
PC07  -3490.388803  33213.049359 -25548.866556   -247.076171
PC08 -12353.423779  19388.884251  35298.200479    266.042290
PC09 -11284.785762  36933.922622 -17179.244734    -30.765887
PC10   4518.251285  36246.801001 -20274.210522     -0.910408
PC11 -16776.214731   5113.147204 -21623.855617    232.778315
PC12  -9770.780806 -15478.767343 -21021.483312    875.801227
PC13  -4926.588841  21770.222561  35897.333680    376.007722
PC14 -21111.494579  -4517.234328  17715.320760    695.338890
PC16 -19506.156582  37179.216443  -5200.925659   -153.149115
PC19  16290.178136  -4707.585046 -22145.706045   -974.347726
PC20  22369.035685  11611.312790 -11955.529027    155.846946
PC21 -15387.639926 -22385.139428  -6427.276390   -969.111951
PC22    514.014426 -19278.929435 -20187.690554   -243.500165
PC23 -12863.965197  16720.632682 -18260.406110   -831.346438
PC24 -24258.069140  -3852.894935  13204.549012    551.114378
PC25 -25615.002103  10166.459458  -4323.815353    245.409274
PC26  -9373.138248 -14014.185476  22215.100397   -199.795914
PC27   4789.973428  22453.192595  15852.521380    221.545029
PC28  -7283.642288  26911.857113   1136.393531    166.954699
PC29  16106.694967 -15521.170622  16687.413116    195.251724
PC30  14990.882497   5867.835493  22791.822328     -7.538830
PC32  15460.397709  22284.320808   6560.956634   -532.291474
PC33 -16374.184399   4705.127672  22098.494888   -948.417874
PC34 -15510.715940  -4197.301964 -22822.170960    293.423413
PC36  26166.826383  -9066.542866   3520.952725   -154.410663
PC37   8318.580656  14496.925914 -22341.415016   -871.203682
PC38 -20759.757479  20074.022559  30691.406757    114.750511
PC39 -20031.330414  37257.463894   -322.848511     -5.512315
PC40  -6847.243542  29193.183793 -29511.443350    -42.288961
PC41  -1215.122362  18886.278796  20551.202309   -871.659700
PC42 -22431.118414 -12777.780571  10658.779527   -508.997358
PC43 -16404.717711  14624.325166 -17212.165885     46.311607
PC44  -5639.765465 -22381.002112 -15676.253007    278.896106
PC45  12371.256772 -16689.203914  18642.409567    -41.776022
PC46  24879.851732   3015.796576 -12325.296959    -96.276058
PJ03 -26584.232277  32157.014695  -1605.035969     -6.758853
PJ04 -26252.227948  25952.280320  26280.382180     71.785083
EOF
